[{"OBJECT_NAME":"YAOGAN-36 02B","OBJECT_ID":"2022-133B","EPOCH":"2026-03-09T22:42:31.775904","MEAN_MOTION":15.30199518,"ECCENTRICITY":0.00056841,"INCLINATION":34.9983,"RA_OF_ASC_NODE":22.5268,"ARG_OF_PERICENTER":273.0351,"MEAN_ANOMALY":86.9715,"EPHEMERIS_TYPE":0,"CLASSIFICATION_TYPE":"U","NORAD_CAT_ID":54043,"ELEMENT_SET_NO":999,"REV_AT_EPOCH":18962,"BSTAR":0.00051218814,"MEAN_MOTION_DOT":0.00015352,"MEAN_MOTION_DDOT":0},{"OBJECT_NAME":"STARLINK-33795","OBJECT_ID":"2025-069AA","EPOCH":"2026-03-09T12:08:05.307936","MEAN_MOTION":15.30204388,"ECCENTRICITY":0.0001658,"INCLINATION":53.1576,"RA_OF_ASC_NODE":143.5282,"ARG_OF_PERICENTER":67.7727,"MEAN_ANOMALY":292.345,"EPHEMERIS_TYPE":0,"CLASSIFICATION_TYPE":"U","NORAD_CAT_ID":63457,"ELEMENT_SET_NO":999,"REV_AT_EPOCH":5326,"BSTAR":0.0010546642,"MEAN_MOTION_DOT":0.00031012,"MEAN_MOTION_DDOT":0}]
